[{"OBJECT_NAME":"SL-8 R/B","OBJECT_ID":"1988-053B","EPOCH":"2026-03-13T06:34:55.771104","MEAN_MOTION":14.38918132,"ECCENTRICITY":0.00214777,"INCLINATION":74.0455,"RA_OF_ASC_NODE":105.8585,"ARG_OF_PERICENTER":284.6463,"MEAN_ANOMALY":149.2613,"EPHEMERIS_TYPE":0,"CLASSIFICATION_TYPE":"U","NORAD_CAT_ID":19257,"ELEMENT_SET_NO":999,"REV_AT_EPOCH":97711,"BSTAR":0.00010214025,"MEAN_MOTION_DOT":2.89e-6,"MEAN_MOTION_DDOT":0},{"OBJECT_NAME":"COSMOS 1975","OBJECT_ID":"1988-093A","EPOCH":"2026-03-13T12:32:51.979776","MEAN_MOTION":15.28127804,"ECCENTRICITY":0.00125213,"INCLINATION":82.5183,"RA_OF_ASC_NODE":113.8374,"ARG_OF_PERICENTER":150.4889,"MEAN_ANOMALY":209.7059,"EPHEMERIS_TYPE":0,"CLASSIFICATION_TYPE":"U","NORAD_CAT_ID":19573,"ELEMENT_SET_NO":999,"REV_AT_EPOCH":1999,"BSTAR":0.00028919669,"MEAN_MOTION_DOT":7.979e-5,"MEAN_MOTION_DDOT":0},{"OBJECT_NAME":"SL-14 R/B","OBJECT_ID":"1988-093B","EPOCH":"2026-03-13T23:23:33.213408","MEAN_MOTION":14.85662506,"ECCENTRICITY":0.00214588,"INCLINATION":82.5312,"RA_OF_ASC_NODE":38.0211,"ARG_OF_PERICENTER":27.9881,"MEAN_ANOMALY":43.4022,"EPHEMERIS_TYPE":0,"CLASSIFICATION_TYPE":"U","NORAD_CAT_ID":19574,"ELEMENT_SET_NO":999,"REV_AT_EPOCH":165,"BSTAR":7.642349e-5,"MEAN_MOTION_DOT":6.89e-6,"MEAN_MOTION_DDOT":0},{"OBJECT_NAME":"SL-16 R/B","OBJECT_ID":"1988-102B","EPOCH":"2026-03-13T22:20:48.386976","MEAN_MOTION":14.16154866,"ECCENTRICITY":0.00142288,"INCLINATION":70.9996,"RA_OF_ASC_NODE":142.5732,"ARG_OF_PERICENTER":354.9106,"MEAN_ANOMALY":5.187,"EPHEMERIS_TYPE":0,"CLASSIFICATION_TYPE":"U","NORAD_CAT_ID":19650,"ELEMENT_SET_NO":999,"REV_AT_EPOCH":92749,"BSTAR":0.00013920766,"MEAN_MOTION_DOT":2.28e-6,"MEAN_MOTION_DDOT":0},{"OBJECT_NAME":"INTERCOSMOS 24","OBJECT_ID":"1989-080A","EPOCH":"2026-03-13T18:34:36.081408","MEAN_MOTION":12.59564721,"ECCENTRICITY":0.1186677,"INCLINATION":82.602,"RA_OF_ASC_NODE":101.7439,"ARG_OF_PERICENTER":283.3309,"MEAN_ANOMALY":63.8376,"EPHEMERIS_TYPE":0,"CLASSIFICATION_TYPE":"U","NORAD_CAT_ID":20261,"ELEMENT_SET_NO":999,"REV_AT_EPOCH":66731,"BSTAR":0.0002394622,"MEAN_MOTION_DOT":8.04e-6,"MEAN_MOTION_DDOT":0},{"OBJECT_NAME":"SL-14 R/B","OBJECT_ID":"1989-080C","EPOCH":"2026-03-13T07:36:08.360352","MEAN_MOTION":12.50498591,"ECCENTRICITY":0.12306732,"INCLINATION":82.5974,"RA_OF_ASC_NODE":170.8587,"ARG_OF_PERICENTER":176.4619,"MEAN_ANOMALY":184.628,"EPHEMERIS_TYPE":0,"CLASSIFICATION_TYPE":"U","NORAD_CAT_ID":20262,"ELEMENT_SET_NO":999,"REV_AT_EPOCH":66060,"BSTAR":0.00018191817,"MEAN_MOTION_DOT":6.22e-6,"MEAN_MOTION_DDOT":0},{"OBJECT_NAME":"DELTA 1 R/B","OBJECT_ID":"1989-089B","EPOCH":"2026-03-13T19:52:50.888928","MEAN_MOTION":14.50666794,"ECCENTRICITY":0.0070635,"INCLINATION":97.0703,"RA_OF_ASC_NODE":279.6088,"ARG_OF_PERICENTER":109.1386,"MEAN_ANOMALY":251.7476,"EPHEMERIS_TYPE":0,"CLASSIFICATION_TYPE":"U","NORAD_CAT_ID":20323,"ELEMENT_SET_NO":999,"REV_AT_EPOCH":89633,"BSTAR":0.00010954257,"MEAN_MOTION_DOT":4.09e-6,"MEAN_MOTION_DDOT":0},{"OBJECT_NAME":"ARIANE 40 R/B","OBJECT_ID":"1990-005H","EPOCH":"2026-03-13T21:55:26.581440","MEAN_MOTION":14.39873538,"ECCENTRICITY":0.00101101,"INCLINATION":98.3074,"RA_OF_ASC_NODE":133.449,"ARG_OF_PERICENTER":185.517,"MEAN_ANOMALY":174.5909,"EPHEMERIS_TYPE":0,"CLASSIFICATION_TYPE":"U","NORAD_CAT_ID":20443,"ELEMENT_SET_NO":999,"REV_AT_EPOCH":89341,"BSTAR":0.00010613258,"MEAN_MOTION_DOT":2.91e-6,"MEAN_MOTION_DDOT":0},{"OBJECT_NAME":"DELTA 2 R/B(1)","OBJECT_ID":"1990-008B","EPOCH":"2026-03-13T13:03:59.109696","MEAN_MOTION":15.56513638,"ECCENTRICITY":0.00841404,"INCLINATION":35.6032,"RA_OF_ASC_NODE":149.5449,"ARG_OF_PERICENTER":294.2576,"MEAN_ANOMALY":64.9388,"EPHEMERIS_TYPE":0,"CLASSIFICATION_TYPE":"U","NORAD_CAT_ID":20453,"ELEMENT_SET_NO":999,"REV_AT_EPOCH":92673,"BSTAR":0.00087109249,"MEAN_MOTION_DOT":0.00075823,"MEAN_MOTION_DDOT":0},{"OBJECT_NAME":"COSMOS 2058","OBJECT_ID":"1990-010A","EPOCH":"2026-03-13T22:50:24.325152","MEAN_MOTION":15.11363268,"ECCENTRICITY":0.00087051,"INCLINATION":82.4666,"RA_OF_ASC_NODE":43.2278,"ARG_OF_PERICENTER":330.4336,"MEAN_ANOMALY":29.6401,"EPHEMERIS_TYPE":0,"CLASSIFICATION_TYPE":"U","NORAD_CAT_ID":20465,"ELEMENT_SET_NO":999,"REV_AT_EPOCH":94288,"BSTAR":0.00028022006,"MEAN_MOTION_DOT":4.757e-5,"MEAN_MOTION_DDOT":0},{"OBJECT_NAME":"SL-14 R/B","OBJECT_ID":"1990-010B","EPOCH":"2026-03-13T22:27:52.724160","MEAN_MOTION":14.83573016,"ECCENTRICITY":0.00183731,"INCLINATION":82.4987,"RA_OF_ASC_NODE":263.3987,"ARG_OF_PERICENTER":287.2742,"MEAN_ANOMALY":72.6462,"EPHEMERIS_TYPE":0,"CLASSIFICATION_TYPE":"U","NORAD_CAT_ID":20466,"ELEMENT_SET_NO":999,"REV_AT_EPOCH":92911,"BSTAR":5.9207648e-5,"MEAN_MOTION_DOT":5.12e-6,"MEAN_MOTION_DDOT":0},{"OBJECT_NAME":"SL-14 R/B","OBJECT_ID":"1990-018B","EPOCH":"2026-03-13T21:22:14.050560","MEAN_MOTION":14.82150039,"ECCENTRICITY":0.00176183,"INCLINATION":82.521,"RA_OF_ASC_NODE":219.163,"ARG_OF_PERICENTER":79.3331,"MEAN_ANOMALY":280.9866,"EPHEMERIS_TYPE":0,"CLASSIFICATION_TYPE":"U","NORAD_CAT_ID":20511,"ELEMENT_SET_NO":999,"REV_AT_EPOCH":92320,"BSTAR":7.1594791e-5,"MEAN_MOTION_DOT":5.95e-6,"MEAN_MOTION_DDOT":0},{"OBJECT_NAME":"HST","OBJECT_ID":"1990-037B","EPOCH":"2026-03-13T22:08:59.435232","MEAN_MOTION":15.29556322,"ECCENTRICITY":0.00017779,"INCLINATION":28.4723,"RA_OF_ASC_NODE":11.1207,"ARG_OF_PERICENTER":167.7784,"MEAN_ANOMALY":192.2855,"EPHEMERIS_TYPE":0,"CLASSIFICATION_TYPE":"U","NORAD_CAT_ID":20580,"ELEMENT_SET_NO":999,"REV_AT_EPOCH":77396,"BSTAR":0.0002844574,"MEAN_MOTION_DOT":8.62e-5,"MEAN_MOTION_DDOT":0},{"OBJECT_NAME":"SL-16 R/B","OBJECT_ID":"1990-046B","EPOCH":"2026-03-13T22:31:43.844160","MEAN_MOTION":14.15011256,"ECCENTRICITY":0.00161902,"INCLINATION":70.9978,"RA_OF_ASC_NODE":288.9905,"ARG_OF_PERICENTER":293.9574,"MEAN_ANOMALY":65.9853,"EPHEMERIS_TYPE":0,"CLASSIFICATION_TYPE":"U","NORAD_CAT_ID":20625,"ELEMENT_SET_NO":999,"REV_AT_EPOCH":84899,"BSTAR":-2.6331403e-5,"MEAN_MOTION_DOT":-9.9e-7,"MEAN_MOTION_DDOT":0},{"OBJECT_NAME":"COSMOS 2084","OBJECT_ID":"1990-055A","EPOCH":"2026-03-13T23:20:19.250592","MEAN_MOTION":15.05678292,"ECCENTRICITY":0.0016418,"INCLINATION":62.7915,"RA_OF_ASC_NODE":320.9716,"ARG_OF_PERICENTER":191.1309,"MEAN_ANOMALY":168.9431,"EPHEMERIS_TYPE":0,"CLASSIFICATION_TYPE":"U","NORAD_CAT_ID":20663,"ELEMENT_SET_NO":999,"REV_AT_EPOCH":93696,"BSTAR":0.00019691956,"MEAN_MOTION_DOT":2.665e-5,"MEAN_MOTION_DDOT":0},{"OBJECT_NAME":"SL-6 R/B(2)","OBJECT_ID":"1990-055D","EPOCH":"2026-03-13T21:28:00.064416","MEAN_MOTION":15.03617639,"ECCENTRICITY":0.00254773,"INCLINATION":62.7824,"RA_OF_ASC_NODE":239.551,"ARG_OF_PERICENTER":348.0578,"MEAN_ANOMALY":11.9914,"EPHEMERIS_TYPE":0,"CLASSIFICATION_TYPE":"U","NORAD_CAT_ID":20666,"ELEMENT_SET_NO":999,"REV_AT_EPOCH":93882,"BSTAR":0.00019275298,"MEAN_MOTION_DOT":2.465e-5,"MEAN_MOTION_DDOT":0},{"OBJECT_NAME":"SL-8 R/B","OBJECT_ID":"1990-078B","EPOCH":"2026-03-13T22:38:05.896320","MEAN_MOTION":14.8921049,"ECCENTRICITY":0.03613144,"INCLINATION":82.8999,"RA_OF_ASC_NODE":247.4844,"ARG_OF_PERICENTER":359.6974,"MEAN_ANOMALY":0.3966,"EPHEMERIS_TYPE":0,"CLASSIFICATION_TYPE":"U","NORAD_CAT_ID":20775,"ELEMENT_SET_NO":999,"REV_AT_EPOCH":80993,"BSTAR":0.0005126595,"MEAN_MOTION_DOT":0.00017388,"MEAN_MOTION_DDOT":0}]
