SL-8 R/B                
1 19257U 88053B   26072.27425661  .00000289  00000+0  10214-3 0  9997
2 19257  74.0455 105.8585 0021477 284.6463 149.2613 14.38918132977118
COSMOS 1975             
1 19573U 88093A   26072.52282384  .00007979  00000+0  28920-3 0  9999
2 19573  82.5183 113.8374 0012521 150.4889 209.7059 15.28127804 19995
SL-14 R/B               
1 19574U 88093B   26072.97468997  .00000689  00000+0  76423-4 0  9998
2 19574  82.5312  38.0211 0021458  27.9881  43.4022 14.85662506  1659
SL-16 R/B               
1 19650U 88102B   26072.93111559  .00000228  00000+0  13921-3 0  9991
2 19650  70.9996 142.5732 0014228 354.9106   5.1870 14.16154866927496
INTERCOSMOS 24          
1 20261U 89080A   26072.77402872  .00000804  00000+0  23946-3 0  9998
2 20261  82.6020 101.7439 1186677 283.3309  63.8376 12.59564721667318
SL-14 R/B               
1 20262U 89080C   26072.31676343  .00000622  00000+0  18192-3 0  9990
2 20262  82.5974 170.8587 1230673 176.4619 184.6280 12.50498591660602
DELTA 1 R/B             
1 20323U 89089B   26072.82836677  .00000409  00000+0  10954-3 0  9992
2 20323  97.0703 279.6088 0070635 109.1386 251.7476 14.50666794896336
ARIANE 40 R/B           
1 20443U 90005H   26072.91350210  .00000291  00000+0  10613-3 0  9990
2 20443  98.3074 133.4490 0010110 185.5170 174.5909 14.39873538893411
DELTA 2 R/B(1)          
1 20453U 90008B   26072.54443414  .00075823  00000+0  87109-3 0  9999
2 20453  35.6032 149.5449 0084140 294.2576  64.9388 15.56513638926731
COSMOS 2058             
1 20465U 90010A   26072.95167043  .00004757  00000+0  28022-3 0  9998
2 20465  82.4666  43.2278 0008705 330.4336  29.6401 15.11363268942888
SL-14 R/B               
1 20466U 90010B   26072.93602690  .00000512  00000+0  59208-4 0  9995
2 20466  82.4987 263.3987 0018373 287.2742  72.6462 14.83573016929117
SL-14 R/B               
1 20511U 90018B   26072.89044040  .00000595  00000+0  71595-4 0  9992
2 20511  82.5210 219.1630 0017618  79.3331 280.9866 14.82150039923208
HST                     
1 20580U 90037B   26072.92291013  .00008620  00000+0  28446-3 0  9990
2 20580  28.4723  11.1207 0001777 167.7784 192.2855 15.29556322773961
SL-16 R/B               
1 20625U 90046B   26072.93870190 -.00000099  00000+0 -26331-4 0  9996
2 20625  70.9978 288.9905 0016190 293.9574  65.9853 14.15011256848994
COSMOS 2084             
1 20663U 90055A   26072.97244503  .00002665  00000+0  19692-3 0  9995
2 20663  62.7915 320.9716 0016418 191.1309 168.9431 15.05678292936961
SL-6 R/B(2)             
1 20666U 90055D   26072.89444519  .00002465  00000+0  19275-3 0  9993
2 20666  62.7824 239.5510 0025477 348.0578  11.9914 15.03617639938822
SL-8 R/B                
1 20775U 90078B   26072.94312380  .00017388  00000+0  51266-3 0  9991
2 20775  82.8999 247.4844 0361314 359.6974   0.3966 14.89210490809933
